GPS BIIR-2  (PRN 13)    
1 24876U 97035A   21335.42609142  .00000125  00000+0  00000+0 0  9999
2 24876  55.4867 163.3991 0055451  54.7038 305.8735  2.00562860178683
GPS BIIR-4  (PRN 20)    
1 26360U 00025A   21335.46245442 -.00000019  00000+0  00000+0 0  9998
2 26360  53.9014  87.0584 0054362 177.1558 296.7242  2.00560396158004
GPS BIIR-8  (PRN 16)    
1 27663U 03005A   21335.57101126 -.00000030  00000+0  00000+0 0  9991
2 27663  55.6526 280.9166 0122825  38.4381 130.5732  2.00576147138043
GPS BIIR-9  (PRN 21)    
1 27704U 03010A   21335.56060051 -.00000069  00000+0  00000+0 0  9995
2 27704  54.9414  31.3295 0245375 299.5484  81.3475  2.00570852136848
GPS BIIR-10 (PRN 22)    
1 28129U 03058A   21335.11807299 -.00000011  00000+0  00000+0 0  9990
2 28129  53.7129  89.7042 0069427 308.6943  50.6702  2.00563597131510
GPS BIIR-11 (PRN 19)    
1 28190U 04009A   21335.37423491 -.00000047  00000+0  00000+0 0  9990
2 28190  56.1119 341.8508 0087124 114.1324  75.0139  2.00564552129671
GPS BIIR-13 (PRN 02)    
1 28474U 04045A   21335.39806948 -.00000069  00000+0  00000+0 0  9993
2 28474  55.2724  31.4015 0208044 275.5276 198.9725  2.00548403125160
GPS BIIRM-1 (PRN 17)    
1 28874U 05038A   21335.34706152 -.00000046  00000+0  00000+0 0  9996
2 28874  56.1869 339.2757 0139826 272.3353 279.9780  2.00559528118565
GPS BIIRM-2 (PRN 31)    
1 29486U 06042A   21335.33967703  .00000065  00000+0  00000+0 0  9992
2 29486  54.7404 217.1570 0103256  18.3744  84.7032  2.00565719111127
GPS BIIRM-3 (PRN 12)    
1 29601U 06052A   21335.14654452 -.00000030  00000+0  00000+0 0  9998
2 29601  55.6537 279.8640 0081906  69.8916 290.9823  2.00566974110138
GPS BIIRM-4 (PRN 15)    
1 32260U 07047A   21335.45014202  .00000108  00000+0  00000+0 0  9990
2 32260  53.2660 148.7494 0137085  60.2057 301.1822  2.00558930103540
GPS BIIRM-5 (PRN 29)    
1 32384U 07062A   21335.51156406 -.00000046  00000+0  00000+0 0  9996
2 32384  56.2995 340.0054 0016686 141.8680  35.1763  2.00578534102247
GPS BIIRM-6 (PRN 07)    
1 32711U 08012A   21334.87077430  .00000063  00000+0  00000+0 0  9991
2 32711  54.4964 216.1563 0154920 228.7724 129.9683  2.00557933100479
GPS BIIRM-8 (PRN 05)    
1 35752U 09043A   21335.46554405 -.00000005  00000+0  00000+0 0  9999
2 35752  54.9247  93.5107 0057750  57.1542  28.7944  2.00569096 90097
GPS BIIF-1  (PRN 25)    
1 36585U 10022A   21335.41516344 -.00000027  00000+0  00000+0 0  9992
2 36585  54.9317 275.5103 0099347  54.4456 113.8060  2.00554948 84324
GPS BIIF-2  (PRN 01)    
1 37753U 11036A   21335.49203053 -.00000067  00000+0  00000+0 0  9998
2 37753  56.5089  36.4217 0109337  50.0066 256.8526  2.00564018 76006
GPS BIIF-3  (PRN 24)    
1 38833U 12053A   21335.05046933  .00000073  00000+0  00000+0 0  9998
2 38833  53.5485 211.4829 0119120  44.1948 316.8426  2.00559556 66164
GPS BIIF-4  (PRN 27)    
1 39166U 13023A   21335.41069698 -.00000046  00000+0  00000+0 0  9990
2 39166  55.8226 335.7235 0096276  34.6999 325.9532  2.00566895 62618
GPS BIIF-5  (PRN 30)    
1 39533U 14008A   21334.91036685  .00000061  00000+0  00000+0 0  9992
2 39533  53.6472 216.9746 0054328 204.6941 155.1301  2.00570136 56400
GPS BIIF-6  (PRN 06)    
1 39741U 14026A   21335.18782840 -.00000067  00000+0  00000+0 0  9991
2 39741  56.4744  35.9601 0026579 298.0155  61.7693  2.00569804 55263
GPS BIIF-7  (PRN 09)    
1 40105U 14045A   21334.78224608  .00000121  00000+0  00000+0 0  9996
2 40105  54.6527 154.7372 0021482 106.7374 253.5436  2.00564267 52798
GPS BIIF-8  (PRN 03)    
1 40294U 14068A   21335.15182268  .00000004  00000+0  00000+0 0  9997
2 40294  55.6701  95.7792 0036776  55.3241 305.0010  2.00557445 51932
GPS BIIF-9  (PRN 26)    
1 40534U 15013A   21335.28507263 -.00000026  00000+0  00000+0 0  9990
2 40534  53.8353 272.9045 0064721  16.3538 343.8545  2.00564504 48550
GPS BIIF-10 (PRN 08)    
1 40730U 15033A   21335.44653348 -.00000047  00000+0  00000+0 0  9997
2 40730  55.3262 334.6448 0068542   1.3946 358.6499  2.00562240 46723
GPS BIIF-11 (PRN 10)    
1 41019U 15062A   21335.49701663  .00000000  00000+0  00000+0 0  9997
2 41019  55.6613  95.6042 0073975 214.5022 144.9958  2.00563079 44567
GPS BIIF-12 (PRN 32)    
1 41328U 16007A   21335.09239848  .00000121  00000+0  00000+0 0  9991
2 41328  54.8756 155.3470 0053961 224.8614 134.7461  2.00554807 42565
GPS BIII-1  (PRN 04)    
1 43873U 18109A   21334.98888215  .00000123  00000+0  00000+0 0  9990
2 43873  55.0560 157.7279 0015715 188.6165 350.5122  2.00563340 21790
GPS BIII-2  (PRN 18)    
1 44506U 19056A   21335.37132637 -.00000069  00000+0  00000+0 0  9990
2 44506  55.5788  36.9393 0020838 182.2589 174.9804  2.00567811 16794
GPS BIII-3  (PRN 23)    
1 45854U 20041A   21335.45976226 -.00000003  00000+0  00000+0 0  9990
2 45854  55.3768  94.2045 0018460 168.7393 193.7290  2.00561600 10778
GPS BIII-4  (PRN 14)    
1 46826U 20078A   21335.30536758 -.00000030  00000+0  00000+0 0  9996
2 46826  54.7044 278.1338 0012159 188.6527  32.6772  2.00566743  8232
